COMMENT,ORIGINATOR,NORAD_CAT_ID,OBJECT_NAME,OBJECT_TYPE,CLASSIFICATION_TYPE,INTLDES,EPOCH,EPOCH_MICROSECONDS,MEAN_MOTION,ECCENTRICITY,INCLINATION,RA_OF_ASC_NODE,ARG_OF_PERICENTER,MEAN_ANOMALY,EPHEMERIS_TYPE,ELEMENT_SET_NO,REV_AT_EPOCH,BSTAR,MEAN_MOTION_DOT,MEAN_MOTION_DDOT,FILE,TLE_LINE0,TLE_LINE1,TLE_LINE2,OBJECT_ID,OBJECT_NUMBER,SEMIMAJOR_AXIS,PERIOD,APOGEE,PERIGEE,DECAYED
"GENERATED VIA SPACETRACK.ORG API","18 SPCS","53903","STARLINK-5022","PAYLOAD","U","22119T","2024-03-12 03:37:06","988512","15.08841157","0.000159","53.2182","349.9755","92.391","267.7264","0","999","8185","0.000077568","0.00000947","0","4222103","0 STARLINK-5022","1 53903U 22119T   24072.15077533  .00000947  00000-0  77568-4 0  9998","2 53903  53.2182 349.9755 0001590  92.3910 267.7264 15.08841157 81850","2022-119T","53903","6917.877","95.437","540.842","538.642","0"
"GENERATED VIA SPACETRACK.ORG API","18 SPCS","53903","STARLINK-5022","PAYLOAD","U","22119T","2024-03-13 11:24:49","949568","15.08842509","0.0001574","53.2186","344.0272","87.0027","273.1145","0","999","8163","0.00016377","0.0000232","0","4222980","0 STARLINK-5022","1 53903U 22119T   24073.47557812  .00002320  00000-0  16377-3 0  9994","2 53903  53.2186 344.0272 0001574  87.0027 273.1145 15.08842509 81633","2022-119T","53903","6917.873","95.437","540.827","538.649","0"
"GENERATED VIA SPACETRACK.ORG API","18 SPCS","53903","STARLINK-5022","PAYLOAD","U","22119T","2024-03-13 11:24:49","949568","15.08842509","0.0001574","53.2186","344.0272","87.0027","273.1145","0","999","8205","0.00016377","0.0000232","0","4223455","0 STARLINK-5022","1 53903U 22119T   24073.47557812  .00002320  00000-0  16377-3 0  9994","2 53903  53.2186 344.0272 0001574  87.0027 273.1145 15.08842509 82050","2022-119T","53903","6917.873","95.437","540.827","538.649","0"
"GENERATED VIA SPACETRACK.ORG API","18 SPCS","53903","STARLINK-5022","PAYLOAD","U","22119T","2024-03-13 22:32:31","778016","15.0884649","0.0001577","53.2179","341.9469","85.4925","274.6248","0","999","8212","0.00021119","0.00003075","0","4223970","0 STARLINK-5022","1 53903U 22119T   24073.93925669  .00003075  00000-0  21119-3 0  9992","2 53903  53.2179 341.9469 0001577  85.4925 274.6248 15.08846490 82129","2022-119T","53903","6917.861","95.437","540.816","538.635","0"
"GENERATED VIA SPACETRACK.ORG API","18 SPCS","53903","STARLINK-5022","PAYLOAD","U","22119T","2024-03-14 03:18:40","777344","15.08854436","0.000158","53.2176","341.0533","92.3236","267.7937","0","999","8173","0.00026323","0.00003905","0","4224679","0 STARLINK-5022","1 53903U 22119T   24074.13797196  .00003905  00000-0  26323-3 0  9991","2 53903  53.2176 341.0533 0001580  92.3236 267.7937 15.08854436 81738","2022-119T","53903","6917.836","95.437","540.794","538.608","0"
"GENERATED VIA SPACETRACK.ORG API","18 SPCS","53903","STARLINK-5022","PAYLOAD","U","22119T","2024-03-14 03:18:40","777344","15.08854436","0.000158","53.2176","341.0533","92.3236","267.7937","0","999","8215","0.00026323","0.00003905","0","4225152","0 STARLINK-5022","1 53903U 22119T   24074.13797196  .00003905  00000-0  26323-3 0  9991","2 53903  53.2176 341.0533 0001580  92.3236 267.7937 15.08854436 82155","2022-119T","53903","6917.836","95.437","540.794","538.608","0"
"GENERATED VIA SPACETRACK.ORG API","18 SPCS","53903","STARLINK-5022","PAYLOAD","U","22119T","2024-03-14 20:47:56","781888","15.08816203","0.0002237","53.2175","337.7773","113.9982","246.1245","0","999","8184","0.0012438","0.0001955","0","4225293","0 STARLINK-5022","1 53903U 22119T   24074.86662942  .00019550  00000-0  12438-2 0  9995","2 53903  53.2175 337.7773 0002237 113.9982 246.1245 15.08816203 81848","2022-119T","53903","6917.953","95.439","541.366","538.271","0"
"GENERATED VIA SPACETRACK.ORG API","18 SPCS","53903","STARLINK-5022","PAYLOAD","U","22119T","2024-03-14 22:23:19","623264","15.08823221","0.0002187","53.218","337.4792","118.0262","242.0951","0","999","8227","0.00093819","0.00014668","0","4225645","0 STARLINK-5022","1 53903U 22119T   24074.93286601  .00014668  00000-0  93819-3 0  9995","2 53903  53.2180 337.4792 0002187 118.0262 242.0951 15.08823221 82278","2022-119T","53903","6917.932","95.439","541.310","538.284","0"
"GENERATED VIA SPACETRACK.ORG API","18 SPCS","53903","STARLINK-5022","PAYLOAD","U","22119T","2024-03-14 23:58:42","89664","15.08843038","0.0001519","53.2181","337.1901","84.6656","275.4509","0","999","8186","0.00010661","0.00001409","0","4225788","0 STARLINK-5022","1 53903U 22119T   24074.99909826  .00001409  00000-0  10661-3 0  9995","2 53903  53.2181 337.1901 0001519  84.6656 275.4509 15.08843038 81862","2022-119T","53903","6917.871","95.437","540.787","538.685","0"
"GENERATED VIA SPACETRACK.ORG API","18 SPCS","53903","STARLINK-5022","PAYLOAD","U","22119T","2024-03-15 22:14:05","811360","15.0884497","0.0001531","53.218","333.0264","88.6995","271.4173","0","999","8242","0.00013592","0.00001876","0","4227250","0 STARLINK-5022","1 53903U 22119T   24075.92645615  .00001876  00000-0  13592-3 0  9996","2 53903  53.2180 333.0264 0001531  88.6995 271.4173 15.08844970 82424","2022-119T","53903","6917.865","95.437","540.789","538.671","0"
"GENERATED VIA SPACETRACK.ORG API","18 SPCS","53903","STARLINK-5022","PAYLOAD","U","22119T","2024-03-15 23:49:28","701984","15.08848247","0.0001526","53.2175","332.7236","104.2216","255.8945","0","999","8243","0.000133","0.0000183","0","4228482","0 STARLINK-5022","1 53903U 22119T   24075.99269331  .00001830  00000-0  13300-3 0  9997","2 53903  53.2175 332.7236 0001526 104.2216 255.8945 15.08848247 82433","2022-119T","53903","6917.855","95.437","540.776","538.665","0"
"GENERATED VIA SPACETRACK.ORG API","18 SPCS","53903","STARLINK-5022","PAYLOAD","U","22119T","2024-03-16 20:29:30","209568","15.08834402","0.0001569","53.2186","328.8656","102.8723","257.2444","0","999","8214","0.000012034","-0.00000096","0","4228628","0 STARLINK-5022","1 53903U 22119T   24076.85382187 -.00000096  00000-0  12034-4 0  9996","2 53903  53.2186 328.8656 0001569 102.8723 257.2444 15.08834402 82147","2022-119T","53903","6917.897","95.438","540.848","538.677","0"
"GENERATED VIA SPACETRACK.ORG API","18 SPCS","53903","STARLINK-5022","PAYLOAD","U","22119T","2024-03-16 22:04:53","354208","15.08834328","0.0001563","53.2187","328.5685","102.4509","257.6658","0","999","8257","0.0000032416","-0.00000236","0","4229019","0 STARLINK-5022","1 53903U 22119T   24076.92006197 -.00000236  00000-0  32416-5 0  9991","2 53903  53.2187 328.5685 0001563 102.4509 257.6658 15.08834328 82574","2022-119T","53903","6917.898","95.438","540.844","538.681","0"
"GENERATED VIA SPACETRACK.ORG API","18 SPCS","53903","STARLINK-5022","PAYLOAD","U","22119T","2024-03-17 02:51:02","608416","15.08840785","0.0001412","53.2187","327.6711","104.9513","255.1636","0","999","8260","0.0000051465","-0.00000206","0","4230125","0 STARLINK-5022","1 53903U 22119T   24077.11878019 -.00000206  00000-0  51465-5 0  9995","2 53903  53.2187 327.6711 0001412 104.9513 255.1636 15.08840785 82606","2022-119T","53903","6917.878","95.438","540.720","538.766","0"
"GENERATED VIA SPACETRACK.ORG API","18 SPCS","53903","STARLINK-5022","PAYLOAD","U","22119T","2024-03-17 21:55:39","32544","15.08887136","0.000163","53.2188","324.1018","104.3658","255.7515","0","999","8272","-0.00063624","-0.00010413","0","4230670","0 STARLINK-5022","1 53903U 22119T   24077.91364621 -.00010413  00000-0 -63624-3 0  9992","2 53903  53.2188 324.1018 0001630 104.3658 255.7515 15.08887136 82721","2022-119T","53903","6917.736","95.435","540.729","538.474","0"
"GENERATED VIA SPACETRACK.ORG API","18 SPCS","53903","STARLINK-5022","PAYLOAD","U","22119T","2024-03-18 02:41:48","829344","15.088617","0.0001582","53.2187","323.2092","116.3047","243.8107","0","999","8233","-0.000234","-0.00004012","0","4230827","0 STARLINK-5022","1 53903U 22119T   24078.11237071 -.00004012  00000-0 -23400-3 0  9999","2 53903  53.2187 323.2092 0001582 116.3047 243.8107 15.08861700 82334","2022-119T","53903","6917.814","95.436","540.773","538.585","0"
"GENERATED VIA SPACETRACK.ORG API","18 SPCS","53903","STARLINK-5022","PAYLOAD","U","22119T","2024-03-18 02:41:48","829344","15.088617","0.0001582","53.2187","323.2092","116.3047","243.8107","0","999","8275","-0.000234","-0.00004012","0","4231680","0 STARLINK-5022","1 53903U 22119T   24078.11237071 -.00004012  00000-0 -23400-3 0  9999","2 53903  53.2187 323.2092 0001582 116.3047 243.8107 15.08861700 82750","2022-119T","53903","6917.814","95.436","540.773","538.585","0"
"GENERATED VIA SPACETRACK.ORG API","18 SPCS","53903","STARLINK-5022","PAYLOAD","U","22119T","2024-03-18 17:00:17","907840","15.08842286","0.0002258","53.2183","320.5344","111.1153","249.0081","0","999","8242","0.0001371","0.00001894","0","4231830","0 STARLINK-5022","1 53903U 22119T   24078.70854060  .00001894  00000-0  13710-3 0  9993","2 53903  53.2183 320.5344 0002258 111.1153 249.0081 15.08842286 82429","2022-119T","53903","6917.873","95.437","541.300","538.176","0"
"GENERATED VIA SPACETRACK.ORG API","18 SPCS","53903","STARLINK-5022","PAYLOAD","U","22119T","2024-03-18 21:46:27","626880","15.08838204","0.0001447","53.2182","319.6437","109.8734","250.2415","0","999","8287","0.00009787","0.0000127","0","4232179","0 STARLINK-5022","1 53903U 22119T   24078.90726420  .00001270  00000-0  97870-4 0  9991","2 53903  53.2182 319.6437 0001447 109.8734 250.2415 15.08838204 82877","2022-119T","53903","6917.886","95.438","540.752","538.750","0"
"GENERATED VIA SPACETRACK.ORG API","18 SPCS","53903","STARLINK-5022","PAYLOAD","U","22119T","2024-03-19 00:57:13","762368","15.08840967","0.0001252","53.2184","319.0462","91.7265","268.3871","0","999","8289","0.00012397","0.00001686","0","4233772","0 STARLINK-5022","1 53903U 22119T   24079.03974262  .00001686  00000-0  12397-3 0  9996","2 53903  53.2184 319.0462 0001252  91.7265 268.3871 15.08840967 82890","2022-119T","53903","6917.877","95.437","540.609","538.876","0"
